CTC1_L_00414001-01
1 10000U 23855PR  26075.70034722  .00000000  00000+0  00000-0 0  9998
2 10000  65.0000   0.0000 0000000   0.0000   0.0000 12.77881384    14
CTC1_L_00414001-02
1 10001U 26212VW  26075.70034722  .00000000  00000+0  00000-0 0  9999
2 10001  65.0000   0.0000 0000000   0.0000  90.0000 12.77881384    14
CTC1_L_00414001-03
1 10002U 26851GQ  26075.70034722  .00000000  00000+0  00000-0 0  9999
2 10002  65.0000   0.0000 0000000   0.0000 180.0000 12.77881384    15
CTC1_L_00414001-04
1 10003U 22518YW  26075.70034722  .00000000  00000+0  00000-0 0  9996
2 10003  65.0000   0.0000 0000000   0.0000 270.0000 12.77881384    16
CTC1_L_00414002-01
1 10004U 26179R   26075.70034722  .00000000  00000+0  00000-0 0  9994
2 10004  65.0000  12.0000 0000000   0.0000  12.0000 12.77881384    14
CTC1_L_00414002-02
1 10005U 23049ZT  26075.70034722  .00000000  00000+0  00000-0 0  9998
2 10005  65.0000  12.0000 0000000   0.0000 102.0000 12.77881384    15
CTC1_L_00414002-03
1 10006U 23889CT  26075.70034722  .00000000  00000+0  00000-0 0  9991
2 10006  65.0000  12.0000 0000000   0.0000 192.0000 12.77881384    15
CTC1_L_00414002-04
1 10007U 24259OS  26075.70034722  .00000000  00000+0  00000-0 0  9994
2 10007  65.0000  12.0000 0000000   0.0000 282.0000 12.77881384    16
CTC1_L_00414003-01
1 10008U 26491GB  26075.70034722  .00000000  00000+0  00000-0 0  9995
2 10008  65.0000  24.0000 0000000   0.0000  24.0000 12.77881384    14
CTC1_L_00414003-02
1 10009U 22223DA  26075.70034722  .00000000  00000+0  00000-0 0  9995
2 10009  65.0000  24.0000 0000000   0.0000 114.0000 12.77881384    15
CTC1_L_00414003-03
1 10010U 26782VF  26075.70034722  .00000000  00000+0  00000-0 0  9991
2 10010  65.0000  24.0000 0000000   0.0000 204.0000 12.77881384    17
CTC1_L_00414003-04
1 10011U 23554MQ  26075.70034722  .00000000  00000+0  00000-0 0  9996
2 10011  65.0000  24.0000 0000000   0.0000 294.0000 12.77881384    17
CTC1_L_00414004-01
1 10012U 22329NQ  26075.70034722  .00000000  00000+0  00000-0 0  9996
2 10012  65.0000  36.0000 0000000   0.0000  36.0000 12.77881384    15
CTC1_L_00414004-02
1 10013U 26885DS  26075.70034722  .00000000  00000+0  00000-0 0  9998
2 10013  65.0000  36.0000 0000000   0.0000 126.0000 12.77881384    16
CTC1_L_00414004-03
1 10014U 24962YS  26075.70034722  .00000000  00000+0  00000-0 0  9993
2 10014  65.0000  36.0000 0000000   0.0000 216.0000 12.77881384    17
CTC1_L_00414004-04
1 10015U 22343KB  26075.70034722  .00000000  00000+0  00000-0 0  9995
2 10015  65.0000  36.0000 0000000   0.0000 306.0000 12.77881384    18
CTC1_L_00414005-01
1 10016U 23428ST  26075.70034722  .00000000  00000+0  00000-0 0  9991
2 10016  65.0000  48.0000 0000000   0.0000  48.0000 12.77881384    15
CTC1_L_00414005-02
1 10017U 23859GM  26075.70034722  .00000000  00000+0  00000-0 0  9990
2 10017  65.0000  48.0000 0000000   0.0000 138.0000 12.77881384    16
CTC1_L_00414005-03
1 10018U 25453PH  26075.70034722  .00000000  00000+0  00000-0 0  9993
2 10018  65.0000  48.0000 0000000   0.0000 228.0000 12.77881384    17
CTC1_L_00414005-04
1 10019U 26939YH  26075.70034722  .00000000  00000+0  00000-0 0  9994
2 10019  65.0000  48.0000 0000000   0.0000 318.0000 12.77881384    18
CTC1_L_00414006-01
1 10020U 22318CY  26075.70034722  .00000000  00000+0  00000-0 0  9993
2 10020  65.0000  60.0000 0000000   0.0000  60.0000 12.77881384    18
CTC1_L_00414006-02
1 10021U 25030GF  26075.70034722  .00000000  00000+0  00000-0 0  9998
2 10021  65.0000  60.0000 0000000   0.0000 150.0000 12.77881384    19
CTC1_L_00414006-03
1 10022U 23976DV  26075.70034722  .00000000  00000+0  00000-0 0  9996
2 10022  65.0000  60.0000 0000000   0.0000 240.0000 12.77881384    10
CTC1_L_00414006-04
1 10023U 26908OI  26075.70034722  .00000000  00000+0  00000-0 0  9995
2 10023  65.0000  60.0000 0000000   0.0000 330.0000 12.77881384    11
CTC1_L_00414007-01
1 10024U 22963XP  26075.70034722  .00000000  00000+0  00000-0 0  9993
2 10024  65.0000  72.0000 0000000   0.0000  72.0000 12.77881384    18
CTC1_L_00414007-02
1 10025U 25579GK  26075.70034722  .00000000  00000+0  00000-0 0  9990
2 10025  65.0000  72.0000 0000000   0.0000 162.0000 12.77881384    19
CTC1_L_00414007-03
1 10026U 26208PQ  26075.70034722  .00000000  00000+0  00000-0 0  9991
2 10026  65.0000  72.0000 0000000   0.0000 252.0000 12.77881384    10
CTC1_L_00414007-04
1 10027U 22185OV  26075.70034722  .00000000  00000+0  00000-0 0  9992
2 10027  65.0000  72.0000 0000000   0.0000 342.0000 12.77881384    11
CTC1_L_00414008-01
1 10028U 25135YZ  26075.70034722  .00000000  00000+0  00000-0 0  9991
2 10028  65.0000  84.0000 0000000   0.0000  84.0000 12.77881384    18
CTC1_L_00414008-02
1 10029U 23892HX  26075.70034722  .00000000  00000+0  00000-0 0  9990
2 10029  65.0000  84.0000 0000000   0.0000 174.0000 12.77881384    19
CTC1_L_00414008-03
1 10030U 22994VN  26075.70034722  .00000000  00000+0  00000-0 0  9994
2 10030  65.0000  84.0000 0000000   0.0000 264.0000 12.77881384    11
CTC1_L_00414008-04
1 10031U 22358DV  26075.70034722  .00000000  00000+0  00000-0 0  9999
2 10031  65.0000  84.0000 0000000   0.0000 354.0000 12.77881384    12
CTC1_L_00414009-01
1 10032U 23478FG  26075.70034722  .00000000  00000+0  00000-0 0  9994
2 10032  65.0000  96.0000 0000000   0.0000  96.0000 12.77881384    19
CTC1_L_00414009-02
1 10033U 23472X   26075.70034722  .00000000  00000+0  00000-0 0  9999
2 10033  65.0000  96.0000 0000000   0.0000 186.0000 12.77881384    10
CTC1_L_00414009-03
1 10034U 23949QN  26075.70034722  .00000000  00000+0  00000-0 0  9999
2 10034  65.0000  96.0000 0000000   0.0000 276.0000 12.77881384    11
CTC1_L_00414009-04
1 10035U 22295KU  26075.70034722  .00000000  00000+0  00000-0 0  9993
2 10035  65.0000  96.0000 0000000   0.0000   6.0000 12.77881384    13
CTC1_L_00414010-01
1 10036U 23074SV  26075.70034722  .00000000  00000+0  00000-0 0  9990
2 10036  65.0000 108.0000 0000000   0.0000 108.0000 12.77881384    11
CTC1_L_00414010-02
1 10037U 26840LD  26075.70034722  .00000000  00000+0  00000-0 0  9995
2 10037  65.0000 108.0000 0000000   0.0000 198.0000 12.77881384    11
CTC1_L_00414010-03
1 10038U 22257QA  26075.70034722  .00000000  00000+0  00000-0 0  9994
2 10038  65.0000 108.0000 0000000   0.0000 288.0000 12.77881384    12
CTC1_L_00414010-04
1 10039U 22285I   26075.70034722  .00000000  00000+0  00000-0 0  9996
2 10039  65.0000 108.0000 0000000   0.0000  18.0000 12.77881384    14
CTC1_L_00414011-01
1 10040U 25896AF  26075.70034722  .00000000  00000+0  00000-0 0  9999
2 10040  65.0000 120.0000 0000000   0.0000 120.0000 12.77881384    14
CTC1_L_00414011-02
1 10041U 22906TQ  26075.70034722  .00000000  00000+0  00000-0 0  9999
2 10041  65.0000 120.0000 0000000   0.0000 210.0000 12.77881384    15
CTC1_L_00414011-03
1 10042U 22333LJ  26075.70034722  .00000000  00000+0  00000-0 0  9994
2 10042  65.0000 120.0000 0000000   0.0000 300.0000 12.77881384    16
CTC1_L_00414011-04
1 10043U 25832HQ  26075.70034722  .00000000  00000+0  00000-0 0  9992
2 10043  65.0000 120.0000 0000000   0.0000  30.0000 12.77881384    17
CTC1_L_00414012-01
1 10044U 23840BS  26075.70034722  .00000000  00000+0  00000-0 0  9990
2 10044  65.0000 132.0000 0000000   0.0000 132.0000 12.77881384    14
CTC1_L_00414012-02
1 10045U 25403PU  26075.70034722  .00000000  00000+0  00000-0 0  9998
2 10045  65.0000 132.0000 0000000   0.0000 222.0000 12.77881384    15
CTC1_L_00414012-03
1 10046U 22304ZY  26075.70034722  .00000000  00000+0  00000-0 0  9996
2 10046  65.0000 132.0000 0000000   0.0000 312.0000 12.77881384    16
CTC1_L_00414012-04
1 10047U 24890BQ  26075.70034722  .00000000  00000+0  00000-0 0  9999
2 10047  65.0000 132.0000 0000000   0.0000  42.0000 12.77881384    17
CTC1_L_00414013-01
1 10048U 24281NG  26075.70034722  .00000000  00000+0  00000-0 0  9994
2 10048  65.0000 144.0000 0000000   0.0000 144.0000 12.77881384    14
CTC1_L_00414013-02
1 10049U 24524WX  26075.70034722  .00000000  00000+0  00000-0 0  9995
2 10049  65.0000 144.0000 0000000   0.0000 234.0000 12.77881384    15
CTC1_L_00414013-03
1 10050U 24435HD  26075.70034722  .00000000  00000+0  00000-0 0  9998
2 10050  65.0000 144.0000 0000000   0.0000 324.0000 12.77881384    17
CTC1_L_00414013-04
1 10051U 25722PJ  26075.70034722  .00000000  00000+0  00000-0 0  9999
2 10051  65.0000 144.0000 0000000   0.0000  54.0000 12.77881384    18
CTC1_L_00414014-01
1 10052U 26397RB  26075.70034722  .00000000  00000+0  00000-0 0  9999
2 10052  65.0000 156.0000 0000000   0.0000 156.0000 12.77881384    15
CTC1_L_00414014-02
1 10053U 26986BY  26075.70034722  .00000000  00000+0  00000-0 0  9994
2 10053  65.0000 156.0000 0000000   0.0000 246.0000 12.77881384    16
CTC1_L_00414014-03
1 10054U 24666KI  26075.70034722  .00000000  00000+0  00000-0 0  9998
2 10054  65.0000 156.0000 0000000   0.0000 336.0000 12.77881384    17
CTC1_L_00414014-04
1 10055U 24071TP  26075.70034722  .00000000  00000+0  00000-0 0  9999
2 10055  65.0000 156.0000 0000000   0.0000  66.0000 12.77881384    18
CTC1_L_00414015-01
1 10056U 25588GL  26075.70034722  .00000000  00000+0  00000-0 0  9994
2 10056  65.0000 168.0000 0000000   0.0000 168.0000 12.77881384    15
CTC1_L_00414015-02
1 10057U 26109AP  26075.70034722  .00000000  00000+0  00000-0 0  9995
2 10057  65.0000 168.0000 0000000   0.0000 258.0000 12.77881384    16
CTC1_L_00414015-03
1 10058U 25709TT  26075.70034722  .00000000  00000+0  00000-0 0  9991
2 10058  65.0000 168.0000 0000000   0.0000 348.0000 12.77881384    17
CTC1_L_00414015-04
1 10059U 22733IJ  26075.70034722  .00000000  00000+0  00000-0 0  9996
2 10059  65.0000 168.0000 0000000   0.0000  78.0000 12.77881384    18
CTC1_L_00414016-01
1 10060U 25176WI  26075.70034722  .00000000  00000+0  00000-0 0  9992
2 10060  65.0000 180.0000 0000000   0.0000 180.0000 12.77881384    18
CTC1_L_00414016-02
1 10061U 22469AB  26075.70034722  .00000000  00000+0  00000-0 0  9995
2 10061  65.0000 180.0000 0000000   0.0000 270.0000 12.77881384    19
